NORAD_CAT_ID,OBJECT_NAME,OBJECT_TYPE,EPOCH,MEAN_MOTION,ECCENTRICITY,INCLINATION,RA_OF_ASC_NODE,ARG_OF_PERICENTER,MEAN_ANOMALY,BSTAR,MEAN_MOTION_DOT,MEAN_MOTION_DDOT,TLE_LINE0,TLE_LINE1,TLE_LINE2,SEMIMAJOR_AXIS,PERIOD,APOGEE,PERIGEE,DECAYED
55280.0,STARLINK-5331,PAYLOAD,2023-03-01 20:24:09,15.69947272,0.0003971,70.0003,312.7509,246.8376,113.2401,0.00013568,0.0001615,0.0,0 STARLINK-5331,1 55280U 23010M   23060.85010785  .00016150  00000-0  13568-3 0  9990,2 55280  70.0003 312.7509 0003971 246.8376 113.2401 15.69947272  7309,6737.185,91.723,361.725,356.375,0.0
55280.0,STARLINK-5331,PAYLOAD,2023-03-02 02:31:10,15.69927998,0.0003416,70.0015,312.035,257.1727,102.9087,2.2195e-06,5.4e-07,0.0,0 STARLINK-5331,1 55280U 23010M   23061.10497755  .00000054  00000-0  22195-5 0  9999,2 55280  70.0015 312.0350 0003416 257.1727 102.9087 15.69927998  7036,6737.24,91.724,361.406,356.804,0.0
55280.0,STARLINK-5331,PAYLOAD,2023-03-02 19:20:25,15.69938837,0.000345,70.0019,310.0645,258.8619,101.2188,3.8535e-05,4.426e-05,0.0,0 STARLINK-5331,1 55280U 23010M   23061.80585620  .00004426  00000-0  38535-4 0  9996,2 55280  70.0019 310.0645 0003450 258.8619 101.2188 15.69938837  7455,6737.209,91.723,361.398,356.75,0.0
55280.0,STARLINK-5331,PAYLOAD,2023-03-03 01:27:35,15.69616975,0.0003258,70.0007,309.3502,262.4818,97.6008,-0.00091985,-0.00108025,0.0,0 STARLINK-5331,1 55280U 23010M   23062.06082836 -.00108025  00000-0 -91985-3 0  9995,2 55280  70.0007 309.3502 0003258 262.4818  97.6008 15.69616975  7188,6738.13,91.742,362.19,357.8,0.0
55280.0,STARLINK-5331,PAYLOAD,2023-03-03 22:52:24,15.69517809,0.0008194,70.0008,306.8431,223.7291,136.3256,-0.00061009,-0.00071863,0.0,0 STARLINK-5331,1 55280U 23010M   23062.95306341 -.00071863  00000-0 -61009-3 0  9996,2 55280  70.0008 306.8431 0008194 223.7291 136.3256 15.69517809  7329,6738.414,91.748,365.8,354.757,0.0
55280.0,STARLINK-5331,PAYLOAD,2023-03-04 10:00:01,15.66284634,0.0003433,70.0001,305.5503,270.41,180.6118,-0.010735,-0.01004953,0.0,0 STARLINK-5331,1 55280U 23010M   23063.41668981 -.01004953  00000-0 -10735-1 0  9994,2 55280  70.0001 305.5503 0003433 270.4100 180.6118 15.66284634  7397,6747.684,91.937,371.865,367.232,0.0
55280.0,STARLINK-5331,PAYLOAD,2023-03-04 14:00:01,15.65938085,0.0003606,69.9999,305.0843,265.9265,44.4007,-0.011386,-0.01046569,0.0,0 STARLINK-5331,1 55280U 23010M   23063.58334491 -.01046569  00000-0 -11386-1 0  9990,2 55280  69.9999 305.0843 0003606 265.9265  44.4007 15.65938085  1309,6748.679,91.958,372.978,368.111,0.0
55280.0,STARLINK-5331,PAYLOAD,2023-03-04 22:00:00,15.65162914,0.0003662,70.0001,304.1533,272.6506,115.7752,-0.011647,-0.01038613,0.0,0 STARLINK-5331,1 55280U 23010M   23063.91667824 -.01038613  00000-0 -11647-1 0  9997,2 55280  70.0001 304.1533 0003662 272.6506 115.7752 15.65162914  1306,6750.907,92.003,375.244,370.3,0.0
55280.0,STARLINK-5331,PAYLOAD,2023-03-05 00:00:00,15.64971267,0.0003451,70.0,303.9206,275.867,221.9365,-0.011631,-0.01030085,0.0,0 STARLINK-5331,1 55280U 23010M   23064.00001157 -.01030085  00000-0 -11631-1 0  9997,2 55280  70.0000 303.9206 0003451 275.8670 221.9365 15.64971267  7496,6751.458,92.014,375.653,370.993,0.0
55280.0,STARLINK-5331,PAYLOAD,2023-03-05 14:00:01,15.63652629,0.0003453,69.9998,302.2946,265.865,275.9916,-0.012408,-0.01041477,0.0,0 STARLINK-5331,1 55280U 23010M   23064.58334491 -.01041477  00000-0 -12408-1 0  9990,2 55280  69.9998 302.2946 0003453 265.8650 275.9916 15.63652629  1303,6755.254,92.092,379.451,374.786,0.0
55280.0,STARLINK-5331,PAYLOAD,2023-03-05 16:00:00,15.63489289,0.0003606,70.0,302.0626,264.6588,26.1131,-0.013051,-0.01100732,0.0,0 STARLINK-5331,1 55280U 23010M   23064.66667824 -.01100732  00000-0 -13051-1 0  9993,2 55280  70.0000 302.0626 0003606 264.6588  26.1131 15.63489289  7592,6755.724,92.102,380.025,375.153,0.0
55280.0,STARLINK-5331,PAYLOAD,2023-03-05 22:00:00,15.62882329,0.0003606,69.9996,301.3669,270.1042,347.1128,-0.012844,-0.01045445,0.0,0 STARLINK-5331,1 55280U 23010M   23064.91667824 -.01045445  00000-0 -12844-1 0  9999,2 55280  69.9996 301.3669 0003606 270.1042 347.1128 15.62882329  1305,6757.473,92.137,381.775,376.901,0.0
55280.0,STARLINK-5331,PAYLOAD,2023-03-06 22:00:00,15.60588914,0.000361,69.9991,298.5888,273.8868,203.9098,-0.013801,-0.01029155,0.0,0 STARLINK-5331,1 55280U 23010M   23065.91667824 -.01029155  00000-0 -13801-1 0  9994,2 55280  69.9991 298.5888 0003610 273.8868 203.9098 15.60588914  7796,6764.092,92.273,388.399,383.515,0.0
55280.0,STARLINK-5331,PAYLOAD,2023-03-07 14:00:01,15.59092957,0.0003494,69.9988,296.7427,265.4225,354.8454,-0.014934,-0.01065502,0.0,0 STARLINK-5331,1 55280U 23010M   23066.58334491 -.01065502  00000-0 -14934-1 0  9993,2 55280  69.9988 296.7427 0003494 265.4225 354.8454 15.59092957  7893,6768.418,92.361,392.648,387.918,0.0
55280.0,STARLINK-5331,PAYLOAD,2023-03-07 22:00:00,15.58293211,0.0003586,69.9984,295.8211,271.8405,58.3205,-0.014667,-0.01004505,0.0,0 STARLINK-5331,1 55280U 23010M   23066.91667824 -.01004505  00000-0 -14667-1 0  9998,2 55280  69.9984 295.8211 0003586 271.8405  58.3205 15.58293211  1308,6770.734,92.409,395.027,390.171,0.0
55280.0,STARLINK-5331,PAYLOAD,2023-03-08 06:00:00,15.5758971,0.0003558,69.998,294.9003,273.4704,125.6367,-0.016666,-0.0111799,0.0,0 STARLINK-5331,1 55280U 23010M   23067.25001157 -.01117990  00000-0 -16666-1 0  9991,2 55280  69.9980 294.9003 0003558 273.4704 125.6367 15.57589710  7991,6772.772,92.451,397.047,392.227,0.0
55280.0,STARLINK-5331,PAYLOAD,2023-03-08 16:00:00,15.56650237,0.0003313,69.9985,293.7509,266.5707,307.4466,-0.017304,-0.01120256,0.0,0 STARLINK-5331,1 55280U 23010M   23067.66667824 -.01120256  00000-0 -17304-1 0  9994,2 55280  69.9985 293.7509 0003313 266.5707 307.4466 15.56650237  8060,6775.497,92.506,399.607,395.117,0.0
55280.0,STARLINK-5331,PAYLOAD,2023-03-08 22:00:00,15.56009473,0.0003272,69.9983,293.062,273.046,261.2642,-0.015944,-0.01017345,0.0,0 STARLINK-5331,1 55280U 23010M   23067.91667824 -.01017345  00000-0 -15944-1 0  9994,2 55280  69.9983 293.0620 0003272 273.0460 261.2642 15.56009473  1301,6777.357,92.544,401.439,397.004,0.0
55280.0,STARLINK-5331,PAYLOAD,2023-03-09 08:00:01,15.55069416,0.0003345,69.998,291.9152,268.5243,78.4217,-0.01693,-0.01041089,0.0,0 STARLINK-5331,1 55280U 23010M   23068.33334491 -.01041089  00000-0 -16930-1 0  9990,2 55280  69.9980 291.9152 0003345 268.5243  78.4217 15.55069416  8163,6780.088,92.6,404.221,399.685,0.0
55280.0,STARLINK-5331,PAYLOAD,2023-03-09 22:00:00,15.53732329,0.0003462,69.9979,290.3127,272.4165,97.8242,-0.017423,-0.01021932,0.0,0 STARLINK-5331,1 55280U 23010M   23068.91667824 -.01021932  00000-0 -17423-1 0  9996,2 55280  69.9979 290.3127 0003462 272.4165  97.8242 15.53732329  1303,6783.977,92.68,408.191,403.493,0.0
55280.0,STARLINK-5331,PAYLOAD,2023-03-10 14:00:01,15.52240902,0.0003392,69.9982,288.4854,268.31,227.9771,-0.01906,-0.01055709,0.0,0 STARLINK-5331,1 55280U 23010M   23069.58334491 -.01055709  00000-0 -19060-1 0  9999,2 55280  69.9982 288.4854 0003392 268.3100 227.9771 15.52240902  8363,6788.322,92.769,412.489,407.884,0.0
55280.0,STARLINK-5331,PAYLOAD,2023-03-10 22:00:00,15.51277225,0.000335,69.9989,287.5732,273.3293,284.6498,-0.0015739,-0.00091727,0.0,0 STARLINK-5331,1 55280U 23010M   23069.91667824 -.00091727  00000-0 -15739-2 0  9994,2 55280  69.9989 287.5732 0003350 273.3293 284.6498 15.51277225  8417,6791.133,92.827,415.273,410.723,0.0
55280.0,STARLINK-5331,PAYLOAD,2023-03-11 06:00:00,15.51244776,0.0003403,69.9992,286.6614,271.3842,347.5257,-0.00085907,-0.00050344,0.0,0 STARLINK-5331,1 55280U 23010M   23070.25001157 -.00050344  00000-0 -85907-3 0  9999,2 55280  69.9992 286.6614 0003403 271.3842 347.5257 15.51244776  8469,6791.228,92.829,415.404,410.782,0.0
55280.0,STARLINK-5331,PAYLOAD,2023-03-11 14:00:01,15.51237336,0.000346,70.0004,285.7499,267.3526,52.5304,-9.332e-05,-5.645e-05,0.0,0 STARLINK-5331,1 55280U 23010M   23070.58335648 -.00005645  00000-0 -93320-4 0  9993,2 55280  70.0004 285.7499 0003460 267.3526  52.5304 15.51237336  1300,6791.249,92.829,415.464,410.765,0.0
55280.0,STARLINK-5331,PAYLOAD,2023-03-11 22:00:00,15.51205647,0.0003493,70.0006,284.8384,274.9588,105.7958,0.00021486,0.00012468,0.0,0 STARLINK-5331,1 55280U 23010M   23070.91667824  .00012468  00000-0  21486-3 0  9996,2 55280  70.0006 284.8384 0003493 274.9588 105.7958 15.51205647  8564,6791.342,92.831,415.579,410.835,0.0
55280.0,STARLINK-5331,PAYLOAD,2023-03-12 14:00:01,15.51253688,0.0003282,70.0007,283.0156,267.4742,235.0837,-0.00067594,-0.00039712,0.0,0 STARLINK-5331,1 55280U 23010M   23071.58334491 -.00039712  00000-0 -67594-3 0  9994,2 55280  70.0007 283.0156 0003282 267.4742 235.0837 15.51253688  1304,6791.202,92.828,415.295,410.838,0.0
55280.0,STARLINK-5331,PAYLOAD,2023-03-12 22:00:00,15.513514,0.000316,70.0005,282.1046,274.2186,289.2746,-0.016797,-0.00900648,0.0,0 STARLINK-5331,1 55280U 23010M   23071.91667824 -.00900648  00000-0 -16797-1 0  9992,2 55280  70.0005 282.1046 0003160 274.2186 289.2746 15.51351400  8727,6790.916,92.822,414.927,410.636,0.0
55280.0,STARLINK-5331,PAYLOAD,2023-03-13 06:00:00,15.50704406,0.0003312,70.0005,281.1938,271.8844,352.288,-0.02077,-0.01085618,0.0,0 STARLINK-5331,1 55280U 23010M   23072.25001157 -.01085618  00000-0 -20770-1 0  9999,2 55280  70.0005 281.1938 0003312 271.8844 352.2880 15.50704406  8771,6792.805,92.861,416.92,412.42,0.0
55280.0,STARLINK-5331,PAYLOAD,2023-03-13 14:00:01,15.49960999,0.0003682,70.001,280.2839,267.8219,56.1521,-0.021514,-0.0109438,0.0,0 STARLINK-5331,1 55280U 23010M   23072.58334491 -.01094380  00000-0 -21514-1 0  9998,2 55280  70.0010 280.2839 0003682 267.8219  56.1521 15.49960999  1301,6794.977,92.906,419.344,414.34,0.0
55280.0,STARLINK-5331,PAYLOAD,2023-03-13 22:00:00,15.4915197,0.0003722,70.0009,279.3749,274.7841,108.1094,-0.020702,-0.0102954,0.0,0 STARLINK-5331,1 55280U 23010M   23072.91667824 -.01029540  00000-0 -20702-1 0  9998,2 55280  70.0009 279.3749 0003722 274.7841 108.1094 15.49151970  1305,6797.343,92.954,421.738,416.678,0.0
